ASTROCAST-0103          
1 47487U 21006CC  26068.70056502  .00087857  00000+0  63760-3 0  9995
2 47487  97.2627 138.0845 0005706 147.8600 212.3013 15.73114428285528
STARLINK-11544 [DTC]    
1 62984U 25031D   26068.87453586  .00227101  00000+0  17151-2 0  9997
2 62984  42.9986   0.1510 0002762 228.8520 131.2109 15.70981480 62749
