[{"OBJECT_NAME":"ASTROCAST-0103","OBJECT_ID":"2021-006CC","EPOCH":"2026-03-09T16:48:48.818592","MEAN_MOTION":15.73114428,"ECCENTRICITY":0.00057063,"INCLINATION":97.2627,"RA_OF_ASC_NODE":138.0845,"ARG_OF_PERICENTER":147.86,"MEAN_ANOMALY":212.3013,"EPHEMERIS_TYPE":0,"CLASSIFICATION_TYPE":"U","NORAD_CAT_ID":47487,"ELEMENT_SET_NO":999,"REV_AT_EPOCH":28552,"BSTAR":0.00063759595,"MEAN_MOTION_DOT":0.00087857,"MEAN_MOTION_DDOT":0},{"OBJECT_NAME":"STARLINK-11544 [DTC]","OBJECT_ID":"2025-031D","EPOCH":"2026-03-09T20:59:19.898304","MEAN_MOTION":15.7098148,"ECCENTRICITY":0.00027615,"INCLINATION":42.9986,"RA_OF_ASC_NODE":0.151,"ARG_OF_PERICENTER":228.852,"MEAN_ANOMALY":131.2109,"EPHEMERIS_TYPE":0,"CLASSIFICATION_TYPE":"U","NORAD_CAT_ID":62984,"ELEMENT_SET_NO":999,"REV_AT_EPOCH":6274,"BSTAR":0.0017151108,"MEAN_MOTION_DOT":0.00227101,"MEAN_MOTION_DDOT":0}]
